METOP-C                 
1 43689U 18087A   26115.91074931  .00000093  00000+0  62337-4 0  9999
2 43689  98.6680 176.4605 0000861  40.6957 319.4284 14.21511580387405
GEO-KOMPSAT-2A          
1 43823U 18100A   26115.94899966 -.00000357  00000+0  00000+0 0  9999
2 43823   0.0569  67.0046 0001951 358.3470 258.5132  1.00271371 27109
METEOR-M2 2             
1 44387U 19038A   26115.98124899 -.00000023  00000+0  99019-5 0  9990
2 44387  98.9135 102.5033 0001733 128.8442 231.2892 14.24350550353861
ARKTIKA-M 1             
1 47719U 21016A   26113.16409645 -.00000101  00000+0  00000+0 0  9997
2 47719  63.2246  65.5569 7266494 269.6808  14.9538  2.00609676 37686
FENGYUN 3E              
1 49008U 21062A   26115.98560451  .00000218  00000+0  12322-3 0  9998
2 49008  98.7512 119.9750 0000785 198.0129 162.1020 14.19900052249173
GOES 18                 
1 51850U 22021A   26115.68255981  .00000083  00000+0  00000+0 0  9994
2 51850   0.0124  93.6914 0000386 357.8405 230.8777  1.00271801  6065
NOAA 21 (JPSS-2)        
1 54234U 22150A   26115.87605025  .00000052  00000+0  45256-4 0  9998
2 54234  98.7033  55.5515 0001848  23.4812 336.6449 14.19555503179120
METEOSAT-12 (MTG-I1)    
1 54743U 22170C   26115.92351955 -.00000021  00000+0  00000+0 0  9991
2 54743   0.7235  22.2457 0001126 331.0139 192.8148  1.00269304 12454
TIANMU-1 03             
1 55973U 23039A   26115.96366191  .00017471  00000+0  36260-3 0  9991
2 55973  97.5221 287.9548 0001650 286.2705  73.8362 15.45767606172761
TIANMU-1 04             
1 55974U 23039B   26115.90767244  .00017943  00000+0  36547-3 0  9992
2 55974  97.5154 287.0497 0002276 278.9136  81.1855 15.46309545172766
TIANMU-1 05             
1 55975U 23039C   26115.94210869  .00017527  00000+0  36453-3 0  9997
2 55975  97.5200 287.5665 0001631 328.4867  31.6284 15.45704468172743
TIANMU-1 06             
1 55976U 23039D   26115.90820384  .00017576  00000+0  35896-3 0  9997
2 55976  97.5209 288.1160 0001820 315.5012  44.6090 15.46237033172760
FENGYUN 3G              
1 56232U 23055A   26115.80353743  .00027829  00000+0  45359-3 0  9997
2 56232  49.9926 256.1754 0005970 319.9000  40.1526 15.52336625171861
METEOR-M2 3             
1 57166U 23091A   26115.96377630 -.00000006  00000+0  16423-4 0  9992
2 57166  98.6131 171.9995 0003294 338.5408  21.5633 14.24042152147080
TIANMU-1 07             
1 57399U 23101A   26115.89286181  .00007304  00000+0  25998-3 0  9997
2 57399  97.2642 167.7728 0001527  15.3068 344.8218 15.29246472153653
TIANMU-1 08             
1 57400U 23101B   26115.92580669  .00008420  00000+0  29899-3 0  9996
2 57400  97.2630 167.5812 0002300 321.7298  38.3779 15.29277475153658
TIANMU-1 09             
1 57401U 23101C   26115.90952508  .00006932  00000+0  24657-3 0  9993
2 57401  97.2589 167.0099 0002022   6.8305 353.2963 15.29283195153655
