[{"OBJECT_NAME":"METOP-C","OBJECT_ID":"2018-087A","EPOCH":"2026-04-25T21:51:28.740384","MEAN_MOTION":14.2151158,"ECCENTRICITY":8.612e-5,"INCLINATION":98.668,"RA_OF_ASC_NODE":176.4605,"ARG_OF_PERICENTER":40.6957,"MEAN_ANOMALY":319.4284,"EPHEMERIS_TYPE":0,"CLASSIFICATION_TYPE":"U","NORAD_CAT_ID":43689,"ELEMENT_SET_NO":999,"REV_AT_EPOCH":38740,"BSTAR":6.233682e-5,"MEAN_MOTION_DOT":9.3e-7,"MEAN_MOTION_DDOT":0},{"OBJECT_NAME":"GEO-KOMPSAT-2A","OBJECT_ID":"2018-100A","EPOCH":"2026-04-25T22:46:33.570624","MEAN_MOTION":1.00271371,"ECCENTRICITY":0.00019514,"INCLINATION":0.0569,"RA_OF_ASC_NODE":67.0046,"ARG_OF_PERICENTER":358.347,"MEAN_ANOMALY":258.5132,"EPHEMERIS_TYPE":0,"CLASSIFICATION_TYPE":"U","NORAD_CAT_ID":43823,"ELEMENT_SET_NO":999,"REV_AT_EPOCH":2710,"BSTAR":0,"MEAN_MOTION_DOT":-3.57e-6,"MEAN_MOTION_DDOT":0},{"OBJECT_NAME":"METEOR-M2 2","OBJECT_ID":"2019-038A","EPOCH":"2026-04-25T23:32:59.912736","MEAN_MOTION":14.2435055,"ECCENTRICITY":0.0001733,"INCLINATION":98.9135,"RA_OF_ASC_NODE":102.5033,"ARG_OF_PERICENTER":128.8442,"MEAN_ANOMALY":231.2892,"EPHEMERIS_TYPE":0,"CLASSIFICATION_TYPE":"U","NORAD_CAT_ID":44387,"ELEMENT_SET_NO":999,"REV_AT_EPOCH":35386,"BSTAR":9.901921e-6,"MEAN_MOTION_DOT":-2.3e-7,"MEAN_MOTION_DDOT":0},{"OBJECT_NAME":"ARKTIKA-M 1","OBJECT_ID":"2021-016A","EPOCH":"2026-04-23T03:56:17.933280","MEAN_MOTION":2.00609676,"ECCENTRICITY":0.72664948,"INCLINATION":63.2246,"RA_OF_ASC_NODE":65.5569,"ARG_OF_PERICENTER":269.6808,"MEAN_ANOMALY":14.9538,"EPHEMERIS_TYPE":0,"CLASSIFICATION_TYPE":"U","NORAD_CAT_ID":47719,"ELEMENT_SET_NO":999,"REV_AT_EPOCH":3768,"BSTAR":0,"MEAN_MOTION_DOT":-1.01e-6,"MEAN_MOTION_DDOT":0},{"OBJECT_NAME":"FENGYUN 3E","OBJECT_ID":"2021-062A","EPOCH":"2026-04-25T23:39:16.229664","MEAN_MOTION":14.19900052,"ECCENTRICITY":7.853e-5,"INCLINATION":98.7512,"RA_OF_ASC_NODE":119.975,"ARG_OF_PERICENTER":198.0129,"MEAN_ANOMALY":162.102,"EPHEMERIS_TYPE":0,"CLASSIFICATION_TYPE":"U","NORAD_CAT_ID":49008,"ELEMENT_SET_NO":999,"REV_AT_EPOCH":24917,"BSTAR":0.00012321545,"MEAN_MOTION_DOT":2.18e-6,"MEAN_MOTION_DDOT":0},{"OBJECT_NAME":"GOES 18","OBJECT_ID":"2022-021A","EPOCH":"2026-04-25T16:22:53.167584","MEAN_MOTION":1.00271801,"ECCENTRICITY":3.865e-5,"INCLINATION":0.0124,"RA_OF_ASC_NODE":93.6914,"ARG_OF_PERICENTER":357.8405,"MEAN_ANOMALY":230.8777,"EPHEMERIS_TYPE":0,"CLASSIFICATION_TYPE":"U","NORAD_CAT_ID":51850,"ELEMENT_SET_NO":999,"REV_AT_EPOCH":606,"BSTAR":0,"MEAN_MOTION_DOT":8.3e-7,"MEAN_MOTION_DDOT":0},{"OBJECT_NAME":"NOAA 21 (JPSS-2)","OBJECT_ID":"2022-150A","EPOCH":"2026-04-25T21:01:30.741600","MEAN_MOTION":14.19555503,"ECCENTRICITY":0.00018485,"INCLINATION":98.7033,"RA_OF_ASC_NODE":55.5515,"ARG_OF_PERICENTER":23.4812,"MEAN_ANOMALY":336.6449,"EPHEMERIS_TYPE":0,"CLASSIFICATION_TYPE":"U","NORAD_CAT_ID":54234,"ELEMENT_SET_NO":999,"REV_AT_EPOCH":17912,"BSTAR":4.525566e-5,"MEAN_MOTION_DOT":5.2e-7,"MEAN_MOTION_DDOT":0},{"OBJECT_NAME":"METEOSAT-12 (MTG-I1)","OBJECT_ID":"2022-170C","EPOCH":"2026-04-25T22:09:52.089120","MEAN_MOTION":1.00269304,"ECCENTRICITY":0.00011262,"INCLINATION":0.7235,"RA_OF_ASC_NODE":22.2457,"ARG_OF_PERICENTER":331.0139,"MEAN_ANOMALY":192.8148,"EPHEMERIS_TYPE":0,"CLASSIFICATION_TYPE":"U","NORAD_CAT_ID":54743,"ELEMENT_SET_NO":999,"REV_AT_EPOCH":1245,"BSTAR":0,"MEAN_MOTION_DOT":-2.1e-7,"MEAN_MOTION_DDOT":0},{"OBJECT_NAME":"TIANMU-1 03","OBJECT_ID":"2023-039A","EPOCH":"2026-04-25T23:07:40.389024","MEAN_MOTION":15.45767606,"ECCENTRICITY":0.00016508,"INCLINATION":97.5221,"RA_OF_ASC_NODE":287.9548,"ARG_OF_PERICENTER":286.2705,"MEAN_ANOMALY":73.8362,"EPHEMERIS_TYPE":0,"CLASSIFICATION_TYPE":"U","NORAD_CAT_ID":55973,"ELEMENT_SET_NO":999,"REV_AT_EPOCH":17276,"BSTAR":0.0003625955,"MEAN_MOTION_DOT":0.00017471,"MEAN_MOTION_DDOT":0},{"OBJECT_NAME":"TIANMU-1 04","OBJECT_ID":"2023-039B","EPOCH":"2026-04-25T21:47:02.898816","MEAN_MOTION":15.46309545,"ECCENTRICITY":0.00022765,"INCLINATION":97.5154,"RA_OF_ASC_NODE":287.0497,"ARG_OF_PERICENTER":278.9136,"MEAN_ANOMALY":81.1855,"EPHEMERIS_TYPE":0,"CLASSIFICATION_TYPE":"U","NORAD_CAT_ID":55974,"ELEMENT_SET_NO":999,"REV_AT_EPOCH":17276,"BSTAR":0.00036547239,"MEAN_MOTION_DOT":0.00017943,"MEAN_MOTION_DDOT":0},{"OBJECT_NAME":"TIANMU-1 05","OBJECT_ID":"2023-039C","EPOCH":"2026-04-25T22:36:38.190816","MEAN_MOTION":15.45704468,"ECCENTRICITY":0.00016314,"INCLINATION":97.52,"RA_OF_ASC_NODE":287.5665,"ARG_OF_PERICENTER":328.4867,"MEAN_ANOMALY":31.6284,"EPHEMERIS_TYPE":0,"CLASSIFICATION_TYPE":"U","NORAD_CAT_ID":55975,"ELEMENT_SET_NO":999,"REV_AT_EPOCH":17274,"BSTAR":0.000364527,"MEAN_MOTION_DOT":0.00017527,"MEAN_MOTION_DDOT":0},{"OBJECT_NAME":"TIANMU-1 06","OBJECT_ID":"2023-039D","EPOCH":"2026-04-25T21:47:48.811776","MEAN_MOTION":15.46237033,"ECCENTRICITY":0.00018205,"INCLINATION":97.5209,"RA_OF_ASC_NODE":288.116,"ARG_OF_PERICENTER":315.5012,"MEAN_ANOMALY":44.609,"EPHEMERIS_TYPE":0,"CLASSIFICATION_TYPE":"U","NORAD_CAT_ID":55976,"ELEMENT_SET_NO":999,"REV_AT_EPOCH":17276,"BSTAR":0.00035895853,"MEAN_MOTION_DOT":0.00017576,"MEAN_MOTION_DDOT":0},{"OBJECT_NAME":"FENGYUN 3G","OBJECT_ID":"2023-055A","EPOCH":"2026-04-25T19:17:05.633952","MEAN_MOTION":15.52336625,"ECCENTRICITY":0.00059705,"INCLINATION":49.9926,"RA_OF_ASC_NODE":256.1754,"ARG_OF_PERICENTER":319.9,"MEAN_ANOMALY":40.1526,"EPHEMERIS_TYPE":0,"CLASSIFICATION_TYPE":"U","NORAD_CAT_ID":56232,"ELEMENT_SET_NO":999,"REV_AT_EPOCH":17186,"BSTAR":0.00045359349,"MEAN_MOTION_DOT":0.00027829,"MEAN_MOTION_DDOT":0},{"OBJECT_NAME":"METEOR-M2 3","OBJECT_ID":"2023-091A","EPOCH":"2026-04-25T23:07:50.272320","MEAN_MOTION":14.24042152,"ECCENTRICITY":0.00032944,"INCLINATION":98.6131,"RA_OF_ASC_NODE":171.9995,"ARG_OF_PERICENTER":338.5408,"MEAN_ANOMALY":21.5633,"EPHEMERIS_TYPE":0,"CLASSIFICATION_TYPE":"U","NORAD_CAT_ID":57166,"ELEMENT_SET_NO":999,"REV_AT_EPOCH":14708,"BSTAR":1.6422793e-5,"MEAN_MOTION_DOT":-6.0e-8,"MEAN_MOTION_DDOT":0},{"OBJECT_NAME":"TIANMU-1 07","OBJECT_ID":"2023-101A","EPOCH":"2026-04-25T21:25:43.260384","MEAN_MOTION":15.29246472,"ECCENTRICITY":0.00015271,"INCLINATION":97.2642,"RA_OF_ASC_NODE":167.7728,"ARG_OF_PERICENTER":15.3068,"MEAN_ANOMALY":344.8218,"EPHEMERIS_TYPE":0,"CLASSIFICATION_TYPE":"U","NORAD_CAT_ID":57399,"ELEMENT_SET_NO":999,"REV_AT_EPOCH":15365,"BSTAR":0.0002599798,"MEAN_MOTION_DOT":7.304e-5,"MEAN_MOTION_DDOT":0},{"OBJECT_NAME":"TIANMU-1 08","OBJECT_ID":"2023-101B","EPOCH":"2026-04-25T22:13:09.698016","MEAN_MOTION":15.29277475,"ECCENTRICITY":0.00023005,"INCLINATION":97.263,"RA_OF_ASC_NODE":167.5812,"ARG_OF_PERICENTER":321.7298,"MEAN_ANOMALY":38.3779,"EPHEMERIS_TYPE":0,"CLASSIFICATION_TYPE":"U","NORAD_CAT_ID":57400,"ELEMENT_SET_NO":999,"REV_AT_EPOCH":15365,"BSTAR":0.0002989875,"MEAN_MOTION_DOT":8.42e-5,"MEAN_MOTION_DDOT":0},{"OBJECT_NAME":"TIANMU-1 09","OBJECT_ID":"2023-101C","EPOCH":"2026-04-25T21:49:42.966912","MEAN_MOTION":15.29283195,"ECCENTRICITY":0.00020226,"INCLINATION":97.2589,"RA_OF_ASC_NODE":167.0099,"ARG_OF_PERICENTER":6.8305,"MEAN_ANOMALY":353.2963,"EPHEMERIS_TYPE":0,"CLASSIFICATION_TYPE":"U","NORAD_CAT_ID":57401,"ELEMENT_SET_NO":999,"REV_AT_EPOCH":15365,"BSTAR":0.0002465734,"MEAN_MOTION_DOT":6.932e-5,"MEAN_MOTION_DDOT":0}]
